[{"OBJECT_NAME":"BEIDOU-3 M15 (C34)","OBJECT_ID":"2018-078B","EPOCH":"2026-04-04T01:12:19.806336","MEAN_MOTION":1.86232221,"ECCENTRICITY":0.0005403,"INCLINATION":54.1526,"RA_OF_ASC_NODE":302.585,"ARG_OF_PERICENTER":45.0328,"MEAN_ANOMALY":315.0307,"EPHEMERIS_TYPE":0,"CLASSIFICATION_TYPE":"U","NORAD_CAT_ID":43648,"ELEMENT_SET_NO":999,"REV_AT_EPOCH":5079,"BSTAR":0,"MEAN_MOTION_DOT":-6.2e-7,"MEAN_MOTION_DDOT":0},{"OBJECT_NAME":"BEIDOU-3 G1 (C59)","OBJECT_ID":"2018-085A","EPOCH":"2026-04-01T20:42:38.441952","MEAN_MOTION":1.00268589,"ECCENTRICITY":0.00020589,"INCLINATION":2.882,"RA_OF_ASC_NODE":99.4564,"ARG_OF_PERICENTER":12.9832,"MEAN_ANOMALY":168.3736,"EPHEMERIS_TYPE":0,"CLASSIFICATION_TYPE":"U","NORAD_CAT_ID":43683,"ELEMENT_SET_NO":999,"REV_AT_EPOCH":2729,"BSTAR":0,"MEAN_MOTION_DOT":-2.84e-6,"MEAN_MOTION_DDOT":0},{"OBJECT_NAME":"COSMOS 2529 (757)","OBJECT_ID":"2018-086A","EPOCH":"2026-04-02T03:52:06.377952","MEAN_MOTION":2.13101947,"ECCENTRICITY":0.0009054,"INCLINATION":64.2936,"RA_OF_ASC_NODE":195.1591,"ARG_OF_PERICENTER":253.7554,"MEAN_ANOMALY":106.1568,"EPHEMERIS_TYPE":0,"CLASSIFICATION_TYPE":"U","NORAD_CAT_ID":43687,"ELEMENT_SET_NO":999,"REV_AT_EPOCH":5766,"BSTAR":0,"MEAN_MOTION_DOT":2.0e-8,"MEAN_MOTION_DDOT":0},{"OBJECT_NAME":"BEIDOU-3 M17 (C36)","OBJECT_ID":"2018-093A","EPOCH":"2026-04-03T04:18:11.990016","MEAN_MOTION":1.86228537,"ECCENTRICITY":0.00080741,"INCLINATION":54.1686,"RA_OF_ASC_NODE":184.8411,"ARG_OF_PERICENTER":293.4644,"MEAN_ANOMALY":95.1929,"EPHEMERIS_TYPE":0,"CLASSIFICATION_TYPE":"U","NORAD_CAT_ID":43706,"ELEMENT_SET_NO":999,"REV_AT_EPOCH":5014,"BSTAR":0,"MEAN_MOTION_DOT":1.3e-7,"MEAN_MOTION_DDOT":0},{"OBJECT_NAME":"BEIDOU-3 M18 (C37)","OBJECT_ID":"2018-093B","EPOCH":"2026-04-01T09:19:03.973152","MEAN_MOTION":1.86226571,"ECCENTRICITY":0.00064841,"INCLINATION":54.1693,"RA_OF_ASC_NODE":184.894,"ARG_OF_PERICENTER":331.1835,"MEAN_ANOMALY":28.8049,"EPHEMERIS_TYPE":0,"CLASSIFICATION_TYPE":"U","NORAD_CAT_ID":43707,"ELEMENT_SET_NO":999,"REV_AT_EPOCH":5010,"BSTAR":0,"MEAN_MOTION_DOT":-3.0e-8,"MEAN_MOTION_DDOT":0},{"OBJECT_NAME":"GPS BIII-1  (PRN 04)","OBJECT_ID":"2018-109A","EPOCH":"2026-04-05T11:03:03.662784","MEAN_MOTION":2.00558463,"ECCENTRICITY":0.003801,"INCLINATION":55.6371,"RA_OF_ASC_NODE":95.054,"ARG_OF_PERICENTER":198.8972,"MEAN_ANOMALY":333.4266,"EPHEMERIS_TYPE":0,"CLASSIFICATION_TYPE":"U","NORAD_CAT_ID":43873,"ELEMENT_SET_NO":999,"REV_AT_EPOCH":5361,"BSTAR":0,"MEAN_MOTION_DOT":8.0e-8,"MEAN_MOTION_DDOT":0},{"OBJECT_NAME":"BEIDOU-3 IGSO-1 (C38)","OBJECT_ID":"2019-023A","EPOCH":"2026-03-31T15:38:43.399680","MEAN_MOTION":1.00262964,"ECCENTRICITY":0.00251896,"INCLINATION":58.5926,"RA_OF_ASC_NODE":38.4466,"ARG_OF_PERICENTER":236.5952,"MEAN_ANOMALY":266.8923,"EPHEMERIS_TYPE":0,"CLASSIFICATION_TYPE":"U","NORAD_CAT_ID":44204,"ELEMENT_SET_NO":999,"REV_AT_EPOCH":643,"BSTAR":0,"MEAN_MOTION_DOT":-2.26e-6,"MEAN_MOTION_DDOT":0},{"OBJECT_NAME":"BEIDOU-2 G8 (C01)","OBJECT_ID":"2019-027A","EPOCH":"2026-04-05T13:25:58.518912","MEAN_MOTION":1.00275482,"ECCENTRICITY":0.0011526,"INCLINATION":1.4745,"RA_OF_ASC_NODE":74.3181,"ARG_OF_PERICENTER":276.8344,"MEAN_ANOMALY":188.7018,"EPHEMERIS_TYPE":0,"CLASSIFICATION_TYPE":"U","NORAD_CAT_ID":44231,"ELEMENT_SET_NO":999,"REV_AT_EPOCH":2535,"BSTAR":0,"MEAN_MOTION_DOT":-2.44e-6,"MEAN_MOTION_DDOT":0},{"OBJECT_NAME":"COSMOS 2534 (758)","OBJECT_ID":"2019-030A","EPOCH":"2026-04-02T11:14:14.906976","MEAN_MOTION":2.13102468,"ECCENTRICITY":0.00108436,"INCLINATION":64.367,"RA_OF_ASC_NODE":195.1642,"ARG_OF_PERICENTER":278.2113,"MEAN_ANOMALY":91.7529,"EPHEMERIS_TYPE":0,"CLASSIFICATION_TYPE":"U","NORAD_CAT_ID":44299,"ELEMENT_SET_NO":999,"REV_AT_EPOCH":5331,"BSTAR":0,"MEAN_MOTION_DOT":5.0e-8,"MEAN_MOTION_DDOT":0},{"OBJECT_NAME":"BEIDOU-3 IGSO-2 (C39)","OBJECT_ID":"2019-035A","EPOCH":"2026-03-27T19:44:54.998592","MEAN_MOTION":1.00291912,"ECCENTRICITY":0.00390451,"INCLINATION":55.2326,"RA_OF_ASC_NODE":159.578,"ARG_OF_PERICENTER":213.6954,"MEAN_ANOMALY":226.2541,"EPHEMERIS_TYPE":0,"CLASSIFICATION_TYPE":"U","NORAD_CAT_ID":44337,"ELEMENT_SET_NO":999,"REV_AT_EPOCH":2485,"BSTAR":0,"MEAN_MOTION_DOT":-1.61e-6,"MEAN_MOTION_DDOT":0},{"OBJECT_NAME":"GPS BIII-2  (PRN 18)","OBJECT_ID":"2019-056A","EPOCH":"2026-04-05T02:21:03.997152","MEAN_MOTION":2.00569081,"ECCENTRICITY":0.00587645,"INCLINATION":55.6701,"RA_OF_ASC_NODE":334.049,"ARG_OF_PERICENTER":197.6004,"MEAN_ANOMALY":334.4346,"EPHEMERIS_TYPE":0,"CLASSIFICATION_TYPE":"U","NORAD_CAT_ID":44506,"ELEMENT_SET_NO":999,"REV_AT_EPOCH":4860,"BSTAR":0,"MEAN_MOTION_DOT":-9.0e-7,"MEAN_MOTION_DDOT":0},{"OBJECT_NAME":"BEIDOU-3 M24 (C46)","OBJECT_ID":"2019-061A","EPOCH":"2026-04-04T16:18:39.667392","MEAN_MOTION":1.86229007,"ECCENTRICITY":0.00081135,"INCLINATION":54.3962,"RA_OF_ASC_NODE":185.2068,"ARG_OF_PERICENTER":12.5163,"MEAN_ANOMALY":347.5468,"EPHEMERIS_TYPE":0,"CLASSIFICATION_TYPE":"U","NORAD_CAT_ID":44542,"ELEMENT_SET_NO":999,"REV_AT_EPOCH":4442,"BSTAR":0,"MEAN_MOTION_DOT":1.5e-7,"MEAN_MOTION_DDOT":0},{"OBJECT_NAME":"BEIDOU-3 M23 (C45)","OBJECT_ID":"2019-061B","EPOCH":"2026-04-02T03:48:48.819168","MEAN_MOTION":1.86227494,"ECCENTRICITY":0.00048672,"INCLINATION":54.3946,"RA_OF_ASC_NODE":185.2604,"ARG_OF_PERICENTER":359.4431,"MEAN_ANOMALY":22.6796,"EPHEMERIS_TYPE":0,"CLASSIFICATION_TYPE":"U","NORAD_CAT_ID":44543,"ELEMENT_SET_NO":999,"REV_AT_EPOCH":4438,"BSTAR":0,"MEAN_MOTION_DOT":5.0e-8,"MEAN_MOTION_DDOT":0},{"OBJECT_NAME":"EUTELSAT 5 WEST B (EGNOS/PRN 121)","OBJECT_ID":"2019-067A","EPOCH":"2026-04-05T05:52:32.726208","MEAN_MOTION":1.00272865,"ECCENTRICITY":0.0003462,"INCLINATION":0.066,"RA_OF_ASC_NODE":12.3503,"ARG_OF_PERICENTER":12.4462,"MEAN_ANOMALY":251.881,"EPHEMERIS_TYPE":0,"CLASSIFICATION_TYPE":"U","NORAD_CAT_ID":44624,"ELEMENT_SET_NO":999,"REV_AT_EPOCH":2370,"BSTAR":0,"MEAN_MOTION_DOT":-4.1e-7,"MEAN_MOTION_DDOT":0},{"OBJECT_NAME":"BEIDOU-3 IGSO-3 (C40)","OBJECT_ID":"2019-073A","EPOCH":"2026-04-04T22:00:42.019200","MEAN_MOTION":1.00259378,"ECCENTRICITY":0.00414188,"INCLINATION":54.9277,"RA_OF_ASC_NODE":281.6865,"ARG_OF_PERICENTER":188.5176,"MEAN_ANOMALY":171.352,"EPHEMERIS_TYPE":0,"CLASSIFICATION_TYPE":"U","NORAD_CAT_ID":44709,"ELEMENT_SET_NO":999,"REV_AT_EPOCH":2372,"BSTAR":0,"MEAN_MOTION_DOT":-1.78e-6,"MEAN_MOTION_DDOT":0},{"OBJECT_NAME":"BEIDOU-3 M22 (C44)","OBJECT_ID":"2019-078A","EPOCH":"2026-04-04T12:26:41.736768","MEAN_MOTION":1.86227241,"ECCENTRICITY":0.00075582,"INCLINATION":54.0029,"RA_OF_ASC_NODE":302.4189,"ARG_OF_PERICENTER":42.6264,"MEAN_ANOMALY":317.4505,"EPHEMERIS_TYPE":0,"CLASSIFICATION_TYPE":"U","NORAD_CAT_ID":44793,"ELEMENT_SET_NO":999,"REV_AT_EPOCH":4327,"BSTAR":0,"MEAN_MOTION_DOT":-6.1e-7,"MEAN_MOTION_DDOT":0},{"OBJECT_NAME":"BEIDOU-3 M21 (C43)","OBJECT_ID":"2019-078B","EPOCH":"2026-04-03T14:02:01.747680","MEAN_MOTION":1.8622766,"ECCENTRICITY":0.00053542,"INCLINATION":53.9768,"RA_OF_ASC_NODE":302.4147,"ARG_OF_PERICENTER":38.8071,"MEAN_ANOMALY":321.2518,"EPHEMERIS_TYPE":0,"CLASSIFICATION_TYPE":"U","NORAD_CAT_ID":44794,"ELEMENT_SET_NO":999,"REV_AT_EPOCH":4326,"BSTAR":0,"MEAN_MOTION_DOT":-6.3e-7,"MEAN_MOTION_DDOT":0}]
